[{"OBJECT_NAME":"STARLINK-31397","OBJECT_ID":"2024-074G","EPOCH":"2026-03-09T04:22:26.124384","MEAN_MOTION":15.27512537,"ECCENTRICITY":0.00012485,"INCLINATION":43.0017,"RA_OF_ASC_NODE":346.6585,"ARG_OF_PERICENTER":41.9916,"MEAN_ANOMALY":318.1032,"EPHEMERIS_TYPE":0,"CLASSIFICATION_TYPE":"U","NORAD_CAT_ID":59540,"ELEMENT_SET_NO":999,"REV_AT_EPOCH":10593,"BSTAR":0.00041826768,"MEAN_MOTION_DOT":0.00011242,"MEAN_MOTION_DDOT":0},{"OBJECT_NAME":"CZ-4B R\/B","OBJECT_ID":"2010-051C","EPOCH":"2026-03-09T16:48:37.977120","MEAN_MOTION":15.17426017,"ECCENTRICITY":0.00758037,"INCLINATION":97.7974,"RA_OF_ASC_NODE":110.8647,"ARG_OF_PERICENTER":95.044,"MEAN_ANOMALY":265.9451,"EPHEMERIS_TYPE":0,"CLASSIFICATION_TYPE":"U","NORAD_CAT_ID":37181,"ELEMENT_SET_NO":999,"REV_AT_EPOCH":84355,"BSTAR":0.00029718512,"MEAN_MOTION_DOT":6.328e-5,"MEAN_MOTION_DDOT":0}]
